[ {"CCSDS_OMM_VERS": "3.0", "COMMENT": "GENERATED VIA SPACE-TRACK.ORG API", "CREATION_DATE": "2020-02-12T22:30:14", "ORIGINATOR": "18 SPCS", "OBJECT_NAME": "OPS-SAT", "OBJECT_ID": "2019-092F", "CENTER_NAME": "EARTH", "REF_FRAME": "TEME", "TIME_SYSTEM": "UTC", "MEAN_ELEMENT_THEORY": "SGP4", "EPOCH": "2020-02-12T13:51:46.152000", "MEAN_MOTION": "15.15252554", "ECCENTRICITY": "0.00154490", "INCLINATION": "97.4637", "RA_OF_ASC_NODE": "229.0196", "ARG_OF_PERICENTER": "76.3639", "MEAN_ANOMALY": "283.9344", "EPHEMERIS_TYPE": "0", "CLASSIFICATION_TYPE": "U", "NORAD_CAT_ID": "44878", "ELEMENT_SET_NO": "999", "REV_AT_EPOCH": "847", "BSTAR": "0.00000000000000", "MEAN_MOTION_DOT": "-0.00000066", "MEAN_MOTION_DDOT": "0.0000000000000", "SEMIMAJOR_AXIS": "6898.348", "PERIOD": "95.033", "APOAPSIS": "530.871", "PERIAPSIS": "509.556", "OBJECT_TYPE": "PAYLOAD", "RCS_SIZE": "SMALL", "COUNTRY_CODE": "ESA", "LAUNCH_DATE": "2019-12-18", "SITE": "FRGUI", "DECAY_DATE": null, "FILE": "2699193", "GP_ID": "148612380", "TLE_LINE0": "0 OPS-SAT", "TLE_LINE1": "1 44878U 19092F   20043.57761750 -.00000066  00000-0  00000+0 0  9991", "TLE_LINE2": "2 44878  97.4637 229.0196 0015449  76.3639 283.9344 15.15252554  8472"}, {"CCSDS_OMM_VERS": "3.0", "COMMENT": "GENERATED VIA SPACE-TRACK.ORG API", "CREATION_DATE": "2020-02-13T16:26:02", "ORIGINATOR": "18 SPCS", "OBJECT_NAME": "OPS-SAT", "OBJECT_ID": "2019-092F", "CENTER_NAME": "EARTH", "REF_FRAME": "TEME", "TIME_SYSTEM": "UTC", "MEAN_ELEMENT_THEORY": "SGP4", "EPOCH": "2020-02-13T10:27:59.322528", "MEAN_MOTION": "15.15254047", "ECCENTRICITY": "0.00155010", "INCLINATION": "97.4634", "RA_OF_ASC_NODE": "229.8619", "ARG_OF_PERICENTER": "72.8855", "MEAN_ANOMALY": "287.4140", "EPHEMERIS_TYPE": "0", "CLASSIFICATION_TYPE": "U", "NORAD_CAT_ID": "44878", "ELEMENT_SET_NO": "999", "REV_AT_EPOCH": "860", "BSTAR": "0.00000000000000", "MEAN_MOTION_DOT": "-0.00000066", "MEAN_MOTION_DDOT": "0.0000000000000", "SEMIMAJOR_AXIS": "6898.344", "PERIOD": "95.033", "APOAPSIS": "530.902", "PERIAPSIS": "509.516", "OBJECT_TYPE": "PAYLOAD", "RCS_SIZE": "SMALL", "COUNTRY_CODE": "ESA", "LAUNCH_DATE": "2019-12-18", "SITE": "FRGUI", "DECAY_DATE": null, "FILE": "2700234", "GP_ID": "148676281", "TLE_LINE0": "0 OPS-SAT", "TLE_LINE1": "1 44878U 19092F   20044.43610327 -.00000066 +00000-0 +00000-0 0  9991", "TLE_LINE2": "2 44878 097.4634 229.8619 0015501 072.8855 287.4140 15.15254047008604"}, {"CCSDS_OMM_VERS": "3.0", "COMMENT": "GENERATED VIA SPACE-TRACK.ORG API", "CREATION_DATE": "2020-02-14T01:36:21", "ORIGINATOR": "18 SPCS", "OBJECT_NAME": "OPS-SAT", "OBJECT_ID": "2019-092F", "CENTER_NAME": "EARTH", "REF_FRAME": "TEME", "TIME_SYSTEM": "UTC", "MEAN_ELEMENT_THEORY": "SGP4", "EPOCH": "2020-02-13T13:38:10.488480", "MEAN_MOTION": "15.15254858", "ECCENTRICITY": "0.00155050", "INCLINATION": "97.4639", "RA_OF_ASC_NODE": "229.9916", "ARG_OF_PERICENTER": "71.9255", "MEAN_ANOMALY": "288.3713", "EPHEMERIS_TYPE": "0", "CLASSIFICATION_TYPE": "U", "NORAD_CAT_ID": "44878", "ELEMENT_SET_NO": "999", "REV_AT_EPOCH": "862", "BSTAR": "0.00000000000000", "MEAN_MOTION_DOT": "-0.00000066", "MEAN_MOTION_DDOT": "0.0000000000000", "SEMIMAJOR_AXIS": "6898.341", "PERIOD": "95.033", "APOAPSIS": "530.902", "PERIAPSIS": "509.511", "OBJECT_TYPE": "PAYLOAD", "RCS_SIZE": "SMALL", "COUNTRY_CODE": "ESA", "LAUNCH_DATE": "2019-12-18", "SITE": "FRGUI", "DECAY_DATE": null, "FILE": "2700649", "GP_ID": "148704877", "TLE_LINE0": "0 OPS-SAT", "TLE_LINE1": "1 44878U 19092F   20044.56817695 -.00000066 +00000-0 +00000-0 0  9992", "TLE_LINE2": "2 44878 097.4639 229.9916 0015505 071.9255 288.3713 15.15254858008626"}, {"CCSDS_OMM_VERS": "3.0", "COMMENT": "GENERATED VIA SPACE-TRACK.ORG API", "CREATION_DATE": "2020-02-14T06:20:15", "ORIGINATOR": "18 SPCS", "OBJECT_NAME": "OPS-SAT", "OBJECT_ID": "2019-092F", "CENTER_NAME": "EARTH", "REF_FRAME": "TEME", "TIME_SYSTEM": "UTC", "MEAN_ELEMENT_THEORY": "SGP4", "EPOCH": "2020-02-14T00:43:49.839744", "MEAN_MOTION": "15.15255635", "ECCENTRICITY": "0.00154480", "INCLINATION": "97.4633", "RA_OF_ASC_NODE": "230.4451", "ARG_OF_PERICENTER": "70.2805", "MEAN_ANOMALY": "290.0166", "EPHEMERIS_TYPE": "0", "CLASSIFICATION_TYPE": "U", "NORAD_CAT_ID": "44878", "ELEMENT_SET_NO": "999", "REV_AT_EPOCH": "869", "BSTAR": "0.00000000000000", "MEAN_MOTION_DOT": "-0.00000066", "MEAN_MOTION_DDOT": "0.0000000000000", "SEMIMAJOR_AXIS": "6898.339", "PERIOD": "95.033", "APOAPSIS": "530.861", "PERIAPSIS": "509.548", "OBJECT_TYPE": "PAYLOAD", "RCS_SIZE": "SMALL", "COUNTRY_CODE": "ESA", "LAUNCH_DATE": "2019-12-18", "SITE": "FRGUI", "DECAY_DATE": null, "FILE": "2700673", "GP_ID": "148705547", "TLE_LINE0": "0 OPS-SAT", "TLE_LINE1": "1 44878U 19092F   20045.03043796 -.00000066  00000-0  00000+0 0  9997", "TLE_LINE2": "2 44878  97.4633 230.4451 0015448  70.2805 290.0166 15.15255635  8693"}, {"CCSDS_OMM_VERS": "3.0", "COMMENT": "GENERATED VIA SPACE-TRACK.ORG API", "CREATION_DATE": "2020-02-14T17:48:30", "ORIGINATOR": "18 SPCS", "OBJECT_NAME": "OPS-SAT", "OBJECT_ID": "2019-092F", "CENTER_NAME": "EARTH", "REF_FRAME": "TEME", "TIME_SYSTEM": "UTC", "MEAN_ELEMENT_THEORY": "SGP4", "EPOCH": "2020-02-14T05:29:06.612000", "MEAN_MOTION": "15.15255931", "ECCENTRICITY": "0.00154660", "INCLINATION": "97.4639", "RA_OF_ASC_NODE": "230.6400", "ARG_OF_PERICENTER": "69.4508", "MEAN_ANOMALY": "290.8407", "EPHEMERIS_TYPE": "0", "CLASSIFICATION_TYPE": "U", "NORAD_CAT_ID": "44878", "ELEMENT_SET_NO": "999", "REV_AT_EPOCH": "872", "BSTAR": "0.00000000000000", "MEAN_MOTION_DOT": "-0.00000066", "MEAN_MOTION_DDOT": "0.0000000000000", "SEMIMAJOR_AXIS": "6898.338", "PERIOD": "95.033", "APOAPSIS": "530.872", "PERIAPSIS": "509.534", "OBJECT_TYPE": "PAYLOAD", "RCS_SIZE": "SMALL", "COUNTRY_CODE": "ESA", "LAUNCH_DATE": "2019-12-18", "SITE": "FRGUI", "DECAY_DATE": null, "FILE": "2701222", "GP_ID": "148737798", "TLE_LINE0": "0 OPS-SAT", "TLE_LINE1": "1 44878U 19092F   20045.22854875 -.00000066 +00000-0 +00000-0 0  9997", "TLE_LINE2": "2 44878 097.4639 230.6400 0015466 069.4508 290.8407 15.15255931008724"}, {"CCSDS_OMM_VERS": "3.0", "COMMENT": "GENERATED VIA SPACE-TRACK.ORG API", "CREATION_DATE": "2020-02-15T01:27:12", "ORIGINATOR": "18 SPCS", "OBJECT_NAME": "OPS-SAT", "OBJECT_ID": "2019-092F", "CENTER_NAME": "EARTH", "REF_FRAME": "TEME", "TIME_SYSTEM": "UTC", "MEAN_ELEMENT_THEORY": "SGP4", "EPOCH": "2020-02-14T13:24:34.712640", "MEAN_MOTION": "15.15257070", "ECCENTRICITY": "0.00155830", "INCLINATION": "97.4635", "RA_OF_ASC_NODE": "230.9646", "ARG_OF_PERICENTER": "68.0561", "MEAN_ANOMALY": "292.2392", "EPHEMERIS_TYPE": "0", "CLASSIFICATION_TYPE": "U", "NORAD_CAT_ID": "44878", "ELEMENT_SET_NO": "999", "REV_AT_EPOCH": "877", "BSTAR": "0.00000000000000", "MEAN_MOTION_DOT": "-0.00000066", "MEAN_MOTION_DDOT": "0.0000000000000", "SEMIMAJOR_AXIS": "6898.335", "PERIOD": "95.033", "APOAPSIS": "530.949", "PERIAPSIS": "509.450", "OBJECT_TYPE": "PAYLOAD", "RCS_SIZE": "SMALL", "COUNTRY_CODE": "ESA", "LAUNCH_DATE": "2019-12-18", "SITE": "FRGUI", "DECAY_DATE": null, "FILE": "2701596", "GP_ID": "148783157", "TLE_LINE0": "0 OPS-SAT", "TLE_LINE1": "1 44878U 19092F   20045.55873510 -.00000066 +00000-0 +00000-0 0  9990", "TLE_LINE2": "2 44878 097.4635 230.9646 0015583 068.0561 292.2392 15.15257070008779"}, {"CCSDS_OMM_VERS": "3.0", "COMMENT": "GENERATED VIA SPACE-TRACK.ORG API", "CREATION_DATE": "2020-02-15T14:20:17", "ORIGINATOR": "18 SPCS", "OBJECT_NAME": "OPS-SAT", "OBJECT_ID": "2019-092F", "CENTER_NAME": "EARTH", "REF_FRAME": "TEME", "TIME_SYSTEM": "UTC", "MEAN_ELEMENT_THEORY": "SGP4", "EPOCH": "2020-02-15T11:35:53.164608", "MEAN_MOTION": "15.15258410", "ECCENTRICITY": "0.00156390", "INCLINATION": "97.4644", "RA_OF_ASC_NODE": "231.8736", "ARG_OF_PERICENTER": "65.8945", "MEAN_ANOMALY": "294.3946", "EPHEMERIS_TYPE": "0", "CLASSIFICATION_TYPE": "U", "NORAD_CAT_ID": "44878", "ELEMENT_SET_NO": "999", "REV_AT_EPOCH": "891", "BSTAR": "0.00000000000000", "MEAN_MOTION_DOT": "-0.00000066", "MEAN_MOTION_DDOT": "0.0000000000000", "SEMIMAJOR_AXIS": "6898.331", "PERIOD": "95.033", "APOAPSIS": "530.984", "PERIAPSIS": "509.407", "OBJECT_TYPE": "PAYLOAD", "RCS_SIZE": "SMALL", "COUNTRY_CODE": "ESA", "LAUNCH_DATE": "2019-12-18", "SITE": "FRGUI", "DECAY_DATE": null, "FILE": "2702028", "GP_ID": "148793246", "TLE_LINE0": "0 OPS-SAT", "TLE_LINE1": "1 44878U 19092F   20046.48325422 -.00000066  00000-0  00000+0 0  9996", "TLE_LINE2": "2 44878  97.4644 231.8736 0015639  65.8945 294.3946 15.15258410  8915"}, {"CCSDS_OMM_VERS": "3.0", "COMMENT": "GENERATED VIA SPACE-TRACK.ORG API", "CREATION_DATE": "2020-02-16T01:35:40", "ORIGINATOR": "18 SPCS", "OBJECT_NAME": "OPS-SAT", "OBJECT_ID": "2019-092F", "CENTER_NAME": "EARTH", "REF_FRAME": "TEME", "TIME_SYSTEM": "UTC", "MEAN_ELEMENT_THEORY": "SGP4", "EPOCH": "2020-02-15T17:56:15.598464", "MEAN_MOTION": "15.15258632", "ECCENTRICITY": "0.00156720", "INCLINATION": "97.4644", "RA_OF_ASC_NODE": "232.1332", "ARG_OF_PERICENTER": "65.0678", "MEAN_ANOMALY": "295.2202", "EPHEMERIS_TYPE": "0", "CLASSIFICATION_TYPE": "U", "NORAD_CAT_ID": "44878", "ELEMENT_SET_NO": "999", "REV_AT_EPOCH": "895", "BSTAR": "0.00000000000000", "MEAN_MOTION_DOT": "-0.00000066", "MEAN_MOTION_DDOT": "0.0000000000000", "SEMIMAJOR_AXIS": "6898.330", "PERIOD": "95.033", "APOAPSIS": "531.006", "PERIAPSIS": "509.384", "OBJECT_TYPE": "PAYLOAD", "RCS_SIZE": "SMALL", "COUNTRY_CODE": "ESA", "LAUNCH_DATE": "2019-12-18", "SITE": "FRGUI", "DECAY_DATE": null, "FILE": "2702734", "GP_ID": "148848371", "TLE_LINE0": "0 OPS-SAT", "TLE_LINE1": "1 44878U 19092F   20046.74740276 -.00000066 +00000-0 +00000-0 0  9994", "TLE_LINE2": "2 44878 097.4644 232.1332 0015672 065.0678 295.2202 15.15258632008958"}]